GLOBALSTAR M004 [-]     
1 25163U 98008B   24062.16030128 -.00000094  00000+0  53206-4 0  9990
2 25163  52.0000  54.1444 0002827 326.5124 113.4841 12.63351426202021
GLOBALSTAR M002 [-]     
1 25164U 98008C   24062.05259624 -.00000064  00000+0  24971-3 0  9996
2 25164  52.0049 343.9947 0001698  15.9037 344.1836 11.61498502129208
GLOBALSTAR M003 [-]     
1 25165U 98008D   24062.25082094  .00000039  00000+0  13705-2 0  9997
2 25165  51.9843  35.6338 0008248  64.5564  40.1204 12.11982226175997
GLOBALSTAR M006 [-]     
1 25307U 98023B   24061.86816781 -.00000060  00000+0  31131-3 0  9995
2 25307  51.9956 312.4331 0003901 350.8403  89.2574 11.58156885162100
GLOBALSTAR M015 [-]     
1 25308U 98023C   24062.22714973 -.00000141  00000+0 -15348-2 0  9999
2 25308  51.9847  28.3745 0012493 316.5125 146.8701 11.48854237139839
GLOBALSTAR M008 [-]     
1 25309U 98023D   24062.39470059 -.00000057  00000+0  30475-3 0  9996
2 25309  51.9962 125.8644 0002214 250.7022 190.3546 12.36037508179505
